1 45066U 20006Y   23001.54783401 -.00002702  00000-0 -16261-3 0  9999
2 45066  53.0569  88.1680 0002089  39.5096 320.6045 15.06385696161763
1 45066U 20006Y   23001.74687249 -.00001764  00000-0 -99555-4 0  9999
2 45066  53.0565  87.2741 0002076  38.5685 321.5452 15.06386537161459
1 45066U 20006Y   23002.60936822 -.00000488  00000-0 -13847-4 0  9991
2 45066  53.0562  83.4020 0002166  36.5105 323.6031 15.06401871161588
1 45066U 20006Y   23002.67571533 -.00000713  00000-0 -28970-4 0  9996
2 45066  53.0569  83.1055 0002259  35.4099 324.7040 15.06402898161596
1 45066U 20006Y   23003.60458509  .00001547  00000-0  12283-3 0  9990
2 45066  53.0563  78.9346 0002167  36.6862 323.4275 15.06382324161737
1 45066U 20006Y   23004.46709020  .00000838  00000-0  75169-4 0  9997
2 45066  53.0565  75.0629 0002264  36.8093 323.3051 15.06397627161864
1 45066U 20006Y   23005.46227605  .00002734  00000-0  20231-3 0  9998
2 45066  53.0566  70.5956 0002329  33.6736 326.4400 15.06410838162019
1 45066U 20006Y   23005.59497305  .00002369  00000-0  17788-3 0  9995
2 45066  53.0571  70.0004 0002316  32.5138 327.5993 15.06405560162031
1 45066U 20006Y   23006.52386067 -.00003083  00000-0 -18823-3 0  9998
2 45066  53.0570  65.8304 0002367  28.3542 331.7575 15.06374629162172
1 45066U 20006Y   23007.18731696 -.00000966  00000-0 -45948-4 0  9999
2 45066  53.0565  62.8521 0002317  20.7482 339.3601 15.06392217162276
1 45066U 20006Y   23007.85079351 -.00000834  00000-0 -37095-4 0  9994
2 45066  53.0564  59.8730 0002574  33.8626 326.2527 15.06385074162379
1 45066U 20006Y   23008.18252883  .00002717  00000-0  20139-3 0  9994
2 45066  53.0562  58.3849 0002254  23.5869 336.5223 15.06374718162428
1 45066U 20006Y   23009.37675665  .00001928  00000-0  14829-3 0  9995
2 45066  53.0568  53.0229 0002471  35.6491 324.4663 15.06412096162600
1 45066U 20006Y   23009.84118966  .00002739  00000-0  20267-3 0  9997
2 45066  53.0554  50.9384 0002422  30.6353 329.4777 15.06404429162670
1 45066U 20006Y   23010.37196682 -.00000242  00000-0  26965-5 0  9999
2 45066  53.0553  48.5577 0002868  32.4864 327.6301 15.06399682162753
1 45066U 20006Y   23011.36715862  .00003424  00000-0  24859-3 0  9998
2 45066  53.0559  44.0891 0002765  34.8795 325.2374 15.06416872162906
1 45066U 20006Y   23012.76046393 -.00000277  00000-0  35018-6 0  9995
2 45066  53.0544  37.8339 0002862  36.1169 324.0013 15.06386581163119
1 45066U 20006Y   23013.49029311 -.00001954  00000-0 -11231-3 0  9999
2 45066  53.0561  34.5584 0002562  49.5101 310.6111 15.06386925163229
1 45066U 20006Y   23013.75567388 -.00000708  00000-0 -28627-4 0  9993
2 45066  53.0559  33.3674 0002615  47.8257 312.2954 15.06396242163265
1 45066U 20006Y   23015.41434404  .00025298  00000-0  17101-2 0  9992
2 45066  53.0544  25.9207 0002691  59.3407 300.7847 15.06421764163516
1 45066U 20006Y   23015.74608145  .00028616  00000-0  19318-2 0  9992
2 45066  53.0543  24.4314 0003505  65.4809 294.6545 15.06405298163562
1 45066U 20006Y   23016.27684734  .00027188  00000-0  18357-2 0  9994
2 45066  53.0547  22.0478 0002514  70.2049 289.9210 15.06427124163647
1 45066U 20006Y   23016.74127658  .00016386  00000-0  11160-2 0  9996
2 45066  53.0557  19.9637 0002756  69.1646 290.9638 15.06411462163710
1 45066U 20006Y   23017.40475809  .00022298  00000-0  15120-2 0  9993
2 45066  53.0550  16.9849 0002522  80.5517 279.5757 15.06377601163812
1 45066U 20006Y   23018.33361141  .00031599  00000-0  21291-2 0  9999
2 45066  53.0547  12.8153 0002474  82.3211 277.8059 15.06428448163955
1 45066U 20006Y   23018.66533729  .00027313  00000-0  18432-2 0  9990
2 45066  53.0548  11.3257 0002500  84.1549 275.9725 15.06443668164006
1 45066U 20006Y   23019.32880237  .00021698  00000-0  14697-2 0  9992
2 45066  53.0544   8.3471 0002166  84.3513 275.7723 15.06433742164106
1 45066U 20006Y   23020.45671062  .00019604  00000-0  13312-2 0  9999
2 45066  53.0544   3.2848 0002399  91.7311 268.3953 15.06402294164273
1 45066U 20006Y   23025.56542231  .00006361  00000-0  44546-3 0  9991
2 45066  53.0557 340.3485 0001771  84.7375 275.3816 15.06404688165382
1 45066U 20006Y   23026.16254651  .00001518  00000-0  12081-3 0  9992
2 45066  53.0569 337.6738 0002204 104.1910 255.9324 15.06400668165134
1 45066U 20006Y   23027.29044184  .00003058  00000-0  22406-3 0  9998
2 45066  53.0542 332.6051 0001925  85.1315 274.9894 15.06404446165304
1 45066U 20006Y   23028.21929588  .00002579  00000-0  19192-3 0  9996
2 45066  53.0540 328.4336 0001681  90.5220 269.5962 15.06404939165443
1 45066U 20006Y   23028.88277189 -.00000577  00000-0 -19830-4 0  9990
2 45066  53.0536 325.4576 0001771  87.9436 272.1756 15.06396734165545
1 45066U 20006Y   23029.81162571  .00001852  00000-0  14318-3 0  9992
2 45066  53.0533 321.2875 0001693  91.1028 269.0155 15.06398757165685
1 45066U 20006Y   23030.20970145  .00002571  00000-0  19139-3 0  9996
2 45066  53.0537 319.5003 0001694  91.7756 268.3427 15.06407810165749
1 45066U 20006Y   23030.87317612  .00000541  00000-0  55239-4 0  9990
2 45066  53.0529 316.5220 0001845  90.5345 269.5855 15.06394786165843
1 45066U 20006Y   23031.20490455  .00001858  00000-0  14355-3 0  9990
2 45066  53.0535 315.0328 0001654  89.6925 270.4254 15.06405206165893
1 45066U 20006Y   23031.80202849 -.00000162  00000-0  80161-5 0  9992
2 45066  53.0534 312.3523 0001647  91.5306 268.5871 15.06398784165981
1 45066U 20006Y   23032.20010451  .00001729  00000-0  13494-3 0  9995
2 45066  53.0533 310.5652 0001683  91.6920 268.4262 15.06406896166041
1 45066U 20006Y   23033.12896714 -.00000714  00000-0 -29012-4 0  9990
2 45066  53.0531 306.3956 0001808  92.1604 267.9592 15.06395145166182
1 45066U 20006Y   23034.12416577  .00001123  00000-0  94295-4 0  9994
2 45066  53.0532 301.9268 0001555  91.6618 268.4549 15.06403214166330
1 45066U 20006Y   23034.72129656  .00000266  00000-0  36767-4 0  9996
2 45066  53.0527 299.2478 0001948  89.5677 270.5535 15.06391222166427
1 45066U 20006Y   23035.51745584  .00001248  00000-0  10265-3 0  9993
2 45066  53.0532 295.6734 0001697  91.7319 268.3864 15.06400487166544
1 45066U 20006Y   23035.78284302  .00002855  00000-0  21047-3 0  9993
2 45066  53.0526 294.4812 0001566  95.0326 265.0842 15.06402037166588
1 45066U 20006Y   23035.98188093  .00003099  00000-0  22680-3 0  9990
2 45066  53.0525 293.5870 0001622  99.7952 260.3221 15.06406231166613
1 45066U 20006Y   23036.91073412 -.00003614  00000-0 -22390-3 0  9995
2 45066  53.0524 289.4182 0001351  92.3553 267.7590 15.06391119166750
1 45066U 20006Y   23037.17611729 -.00001419  00000-0 -76412-4 0  9999
2 45066  53.0524 288.2271 0001309  92.6546 267.4593 15.06400119166799
1 45066U 20006Y   23037.83959040  .00002347  00000-0  17642-3 0  9991
2 45066  53.0525 285.2485 0001211  94.4761 265.6366 15.06394969166899
1 45066U 20006Y   23038.17132274  .00020758  00000-0  14077-2 0  9995
2 45066  53.0526 283.7594 0001182  92.3905 267.7219 15.06417814166949
1 45066U 20006Y   23038.90114095  .00013152  00000-0  89993-3 0  9997
2 45066  53.0518 280.4837 0001192 111.2295 248.8822 15.06411064167052
1 45066U 20006Y   23038.96748881  .00014758  00000-0  10074-2 0  9995
2 45066  53.0520 280.1863 0001355 114.9805 245.1324 15.06405968167063
1 45066U 20006Y   23039.89634876  .00024271  00000-0  16424-2 0  9992
2 45066  53.0516 276.0158 0001110 133.6980 226.4101 15.06406846167207
1 45066U 20006Y   23040.02904394  .00008477  00000-0  58729-3 0  9999
2 45066  53.0518 275.4191 0001128 109.0223 251.0889 15.06399374167221
1 45066U 20006Y   23040.89155203  .00007849  00000-0  54515-3 0  9992
2 45066  53.0518 271.5456 0001202 114.7763 245.3351 15.06405038167356
1 45066U 20006Y   23041.02424371  .00010417  00000-0  71692-3 0  9993
2 45066  53.0515 270.9487 0001137 108.7096 251.4017 15.06412602167373
1 45066U 20006Y   23041.88674700  .00007432  00000-0  51705-3 0  9996
2 45066  53.0522 267.0772 0001103  98.4389 261.6725 15.06416261167507
1 45066U 20006Y   23042.88195773  .00002864  00000-0  21109-3 0  9994
2 45066  53.0525 262.6093 0001380  95.8885 264.2262 15.06394158167657
1 45066U 20006Y   23043.01465375  .00001176  00000-0  97860-4 0  9991
2 45066  53.0524 262.0141 0001343  94.1845 265.9297 15.06389602167677
1 45066U 20006Y   23044.60698613  .00003733  00000-0  26942-3 0  9993
2 45066  53.0530 254.8651 0001465  88.8962 271.2195 15.06395396167915
1 45066U 20006Y   23045.60218596  .00000697  00000-0  65659-4 0  9997
2 45066  53.0519 250.3981 0001439  94.6182 265.4971 15.06399582168064
1 45066U 20006Y   23046.06661110  .00002142  00000-0  16262-3 0  9994
2 45066  53.0505 248.3135 0001413  96.5265 263.5885 15.06404842168139
1 45066U 20006Y   23046.86277506  .00001176  00000-0  97859-4 0  9992
2 45066  53.0507 244.7396 0001573  88.1610 271.9560 15.06402024168254
1 45066U 20006Y   23047.52624328  .00001179  00000-0  98060-4 0  9992
2 45066  53.0485 241.7610 0001073  98.5553 261.5557 15.06398226168351
1 45066U 20006Y   23047.92432135  .00007050  00000-0  49156-3 0  9994
2 45066  53.0516 239.9742 0000938  80.0048 280.1046 15.06408220168418
1 45066U 20006Y   23048.52144636  .00002307  00000-0  17372-3 0  9992
2 45066  53.0504 237.2921 0001216  96.5190 263.5938 15.06398167168508
1 45066U 20006Y   23048.85318122  .00006025  00000-0  42299-3 0  9998
2 45066  53.0511 235.8032 0001151  87.2033 272.9087 15.06400465168553
1 45066U 20006Y   23048.91952787  .00006749  00000-0  47149-3 0  9998
2 45066  53.0512 235.5052 0001212  91.9737 268.1391 15.06401685168565
1 45066U 20006Y   23050.51185486  .00000730  00000-0  67931-4 0  9997
2 45066  53.0522 228.3571 0001417  90.8490 269.2661 15.06396099169142
1 45066U 20006Y   23051.50706176 -.00000623  00000-0 -22913-4 0  9996
2 45066  53.0515 223.8895 0001349  87.1734 272.9410 15.06393661168950
1 45066U 20006Y   23052.56859902  .00003484  00000-0  25257-3 0  9998
2 45066  53.0537 219.1245 0001293  87.2350 272.8787 15.06411313169114
1 45066U 20006Y   23052.83398376  .00008035  00000-0  55734-3 0  9991
2 45066  53.0522 217.9324 0001329  84.6581 275.4559 15.06423404169153
